CCSDS_OMM_VERS = 2.0
CREATION_DATE  = 
ORIGINATOR     = 

OBJECT_NAME    = H-2A R/B
OBJECT_ID      = 2012-025E
CENTER_NAME    = EARTH
REF_FRAME      = TEME
TIME_SYSTEM    = UTC
MEAN_ELEMENT_THEORY = SGP/SGP4

EPOCH          = 2025-10-27T20:02:42.052416
MEAN_MOTION    = 14.93951773
ECCENTRICITY   = .00466314
INCLINATION    = 98.4526
RA_OF_ASC_NODE = 252.5632
ARG_OF_PERICENTER = 28.9897
MEAN_ANOMALY   = 331.3896

EPHEMERIS_TYPE = 0
CLASSIFICATION_TYPE = U
NORAD_CAT_ID   = 38341
ELEMENT_SET_NO = 999
REV_AT_EPOCH   = 72837
BSTAR          = .4567786E-3
MEAN_MOTION_DOT = .4901E-4
MEAN_MOTION_DDOT = 0

CCSDS_OMM_VERS = 2.0
CREATION_DATE  = 
ORIGINATOR     = 

OBJECT_NAME    = SHIJIAN-16 (SJ-16)
OBJECT_ID      = 2013-057A
CENTER_NAME    = EARTH
REF_FRAME      = TEME
TIME_SYSTEM    = UTC
MEAN_ELEMENT_THEORY = SGP/SGP4

EPOCH          = 2025-10-28T00:02:06.918144
MEAN_MOTION    = 14.91733913
ECCENTRICITY   = .00159776
INCLINATION    = 74.9722
RA_OF_ASC_NODE = 76.1773
ARG_OF_PERICENTER = 73.4680
MEAN_ANOMALY   = 286.8261

EPHEMERIS_TYPE = 0
CLASSIFICATION_TYPE = U
NORAD_CAT_ID   = 39358
ELEMENT_SET_NO = 999
REV_AT_EPOCH   = 65171
BSTAR          = .18277496E-3
MEAN_MOTION_DOT = .1816E-4
MEAN_MOTION_DDOT = 0

CCSDS_OMM_VERS = 2.0
CREATION_DATE  = 
ORIGINATOR     = 

OBJECT_NAME    = SL-4 R/B
OBJECT_ID      = 2014-021B
CENTER_NAME    = EARTH
REF_FRAME      = TEME
TIME_SYSTEM    = UTC
MEAN_ELEMENT_THEORY = SGP/SGP4

EPOCH          = 2025-10-27T06:51:36.622656
MEAN_MOTION    = 15.34868622
ECCENTRICITY   = .0105466
INCLINATION    = 51.6082
RA_OF_ASC_NODE = 266.0636
ARG_OF_PERICENTER = 338.7786
MEAN_ANOMALY   = 20.8838

EPHEMERIS_TYPE = 0
CLASSIFICATION_TYPE = U
NORAD_CAT_ID   = 39679
ELEMENT_SET_NO = 999
REV_AT_EPOCH   = 63575
BSTAR          = .44657E-3
MEAN_MOTION_DOT = .1802E-3
MEAN_MOTION_DDOT = 0

CCSDS_OMM_VERS = 2.0
CREATION_DATE  = 
ORIGINATOR     = 

OBJECT_NAME    = ALOS-2
OBJECT_ID      = 2014-029A
CENTER_NAME    = EARTH
REF_FRAME      = TEME
TIME_SYSTEM    = UTC
MEAN_ELEMENT_THEORY = SGP/SGP4

EPOCH          = 2025-10-27T22:55:54.444000
MEAN_MOTION    = 14.79442162
ECCENTRICITY   = .00010528
INCLINATION    = 97.9232
RA_OF_ASC_NODE = 36.4529
ARG_OF_PERICENTER = 92.2145
MEAN_ANOMALY   = 267.9187

EPHEMERIS_TYPE = 0
CLASSIFICATION_TYPE = U
NORAD_CAT_ID   = 39766
ELEMENT_SET_NO = 999
REV_AT_EPOCH   = 61724
BSTAR          = .21941117E-3
MEAN_MOTION_DOT = .1586E-4
MEAN_MOTION_DDOT = 0

CCSDS_OMM_VERS = 2.0
CREATION_DATE  = 
ORIGINATOR     = 

OBJECT_NAME    = YAOGAN-29
OBJECT_ID      = 2015-069A
CENTER_NAME    = EARTH
REF_FRAME      = TEME
TIME_SYSTEM    = UTC
MEAN_ELEMENT_THEORY = SGP/SGP4

EPOCH          = 2025-10-28T00:01:58.389600
MEAN_MOTION    = 14.82806298
ECCENTRICITY   = .00027856
INCLINATION    = 98.0270
RA_OF_ASC_NODE = 324.0146
ARG_OF_PERICENTER = 74.8806
MEAN_ANOMALY   = 285.2715

EPHEMERIS_TYPE = 0
CLASSIFICATION_TYPE = U
NORAD_CAT_ID   = 41038
ELEMENT_SET_NO = 999
REV_AT_EPOCH   = 53621
BSTAR          = .93272137E-4
MEAN_MOTION_DOT = .7E-5
MEAN_MOTION_DDOT = 0

CCSDS_OMM_VERS = 2.0
CREATION_DATE  = 
ORIGINATOR     = 

OBJECT_NAME    = ASTRO-H (HITOMI)
OBJECT_ID      = 2016-012A
CENTER_NAME    = EARTH
REF_FRAME      = TEME
TIME_SYSTEM    = UTC
MEAN_ELEMENT_THEORY = SGP/SGP4

EPOCH          = 2025-10-27T22:06:13.836672
MEAN_MOTION    = 15.08936843
ECCENTRICITY   = .00098975
INCLINATION    = 30.9979
RA_OF_ASC_NODE = 132.6561
ARG_OF_PERICENTER = 76.7240
MEAN_ANOMALY   = 283.4502

EPHEMERIS_TYPE = 0
CLASSIFICATION_TYPE = U
NORAD_CAT_ID   = 41337
ELEMENT_SET_NO = 999
REV_AT_EPOCH   = 53215
BSTAR          = .2726969E-3
MEAN_MOTION_DOT = .4507E-4
MEAN_MOTION_DDOT = 0

CCSDS_OMM_VERS = 2.0
CREATION_DATE  = 
ORIGINATOR     = 

OBJECT_NAME    = HXMT (HUIYAN)
OBJECT_ID      = 2017-034A
CENTER_NAME    = EARTH
REF_FRAME      = TEME
TIME_SYSTEM    = UTC
MEAN_ELEMENT_THEORY = SGP/SGP4

EPOCH          = 2025-10-27T17:35:29.558400
MEAN_MOTION    = 15.15487060
ECCENTRICITY   = .00318984
INCLINATION    = 43.0152
RA_OF_ASC_NODE = 34.7905
ARG_OF_PERICENTER = 115.8692
MEAN_ANOMALY   = 244.5450

EPHEMERIS_TYPE = 0
CLASSIFICATION_TYPE = U
NORAD_CAT_ID   = 42758
ELEMENT_SET_NO = 999
REV_AT_EPOCH   = 46235
BSTAR          = .4444377E-3
MEAN_MOTION_DOT = .8445E-4
MEAN_MOTION_DDOT = 0

CCSDS_OMM_VERS = 2.0
CREATION_DATE  = 
ORIGINATOR     = 

OBJECT_NAME    = CZ-2C R/B
OBJECT_ID      = 2018-054D
CENTER_NAME    = EARTH
REF_FRAME      = TEME
TIME_SYSTEM    = UTC
MEAN_ELEMENT_THEORY = SGP/SGP4

EPOCH          = 2025-10-27T22:13:16.794912
MEAN_MOTION    = 15.64601567
ECCENTRICITY   = .00260284
INCLINATION    = 35.1342
RA_OF_ASC_NODE = 129.2776
ARG_OF_PERICENTER = 59.3615
MEAN_ANOMALY   = 300.9677

EPHEMERIS_TYPE = 0
CLASSIFICATION_TYPE = U
NORAD_CAT_ID   = 43521
ELEMENT_SET_NO = 999
REV_AT_EPOCH   = 40785
BSTAR          = .76569342E-3
MEAN_MOTION_DOT = .7867E-3
MEAN_MOTION_DDOT = 0

CCSDS_OMM_VERS = 2.0
CREATION_DATE  = 
ORIGINATOR     = 

OBJECT_NAME    = SAOCOM 1A
OBJECT_ID      = 2018-076A
CENTER_NAME    = EARTH
REF_FRAME      = TEME
TIME_SYSTEM    = UTC
MEAN_ELEMENT_THEORY = SGP/SGP4

EPOCH          = 2025-10-27T23:12:51.321024
MEAN_MOTION    = 14.82168770
ECCENTRICITY   = .00014221
INCLINATION    = 97.8878
RA_OF_ASC_NODE = 126.0507
ARG_OF_PERICENTER = 86.1339
MEAN_ANOMALY   = 274.0037

EPHEMERIS_TYPE = 0
CLASSIFICATION_TYPE = U
NORAD_CAT_ID   = 43641
ELEMENT_SET_NO = 999
REV_AT_EPOCH   = 38170
BSTAR          = .99291309E-4
MEAN_MOTION_DOT = .739E-5
MEAN_MOTION_DDOT = 0

CCSDS_OMM_VERS = 2.0
CREATION_DATE  = 
ORIGINATOR     = 

OBJECT_NAME    = H-2A R/B
OBJECT_ID      = 2018-084L
CENTER_NAME    = EARTH
REF_FRAME      = TEME
TIME_SYSTEM    = UTC
MEAN_ELEMENT_THEORY = SGP/SGP4

EPOCH          = 2025-10-27T13:51:12.560544
MEAN_MOTION    = 15.35127081
ECCENTRICITY   = .00293855
INCLINATION    = 98.8821
RA_OF_ASC_NODE = 125.1734
ARG_OF_PERICENTER = 122.7136
MEAN_ANOMALY   = 237.6942

EPHEMERIS_TYPE = 0
CLASSIFICATION_TYPE = U
NORAD_CAT_ID   = 43682
ELEMENT_SET_NO = 999
REV_AT_EPOCH   = 38531
BSTAR          = .5856485E-3
MEAN_MOTION_DOT = .20174E-3
MEAN_MOTION_DDOT = 0

CCSDS_OMM_VERS = 2.0
CREATION_DATE  = 
ORIGINATOR     = 

OBJECT_NAME    = SAOCOM 1B
OBJECT_ID      = 2020-059A
CENTER_NAME    = EARTH
REF_FRAME      = TEME
TIME_SYSTEM    = UTC
MEAN_ELEMENT_THEORY = SGP/SGP4

EPOCH          = 2025-10-27T23:57:54.314784
MEAN_MOTION    = 14.82160061
ECCENTRICITY   = .00013727
INCLINATION    = 97.8872
RA_OF_ASC_NODE = 125.1847
ARG_OF_PERICENTER = 88.2530
MEAN_ANOMALY   = 271.8840

EPHEMERIS_TYPE = 0
CLASSIFICATION_TYPE = U
NORAD_CAT_ID   = 46265
ELEMENT_SET_NO = 999
REV_AT_EPOCH   = 27909
BSTAR          = .98111221E-4
MEAN_MOTION_DOT = .729E-5
MEAN_MOTION_DDOT = 0

CCSDS_OMM_VERS = 2.0
CREATION_DATE  = 
ORIGINATOR     = 

OBJECT_NAME    = CSS (TIANHE)
OBJECT_ID      = 2021-035A
CENTER_NAME    = EARTH
REF_FRAME      = TEME
TIME_SYSTEM    = UTC
MEAN_ELEMENT_THEORY = SGP/SGP4

EPOCH          = 2025-10-27T22:15:25.520544
MEAN_MOTION    = 15.60799969
ECCENTRICITY   = .00108247
INCLINATION    = 41.4667
RA_OF_ASC_NODE = 294.9902
ARG_OF_PERICENTER = 295.4646
MEAN_ANOMALY   = 64.5073

EPHEMERIS_TYPE = 0
CLASSIFICATION_TYPE = U
NORAD_CAT_ID   = 48274
ELEMENT_SET_NO = 999
REV_AT_EPOCH   = 25687
BSTAR          = .4323299E-3
MEAN_MOTION_DOT = .37011E-3
MEAN_MOTION_DDOT = 0

