H-2A R/B                
1 38341U 12025E   25300.83520894  .00004901  00000+0  45678-3 0  9994
2 38341  98.4526 252.5632 0046631  28.9897 331.3896 14.93951773728372
SHIJIAN-16 (SJ-16)      
1 39358U 13057A   25301.00146896  .00001816  00000+0  18277-3 0  9992
2 39358  74.9722  76.1773 0015977  73.4680 286.8261 14.91733913651713
SL-4 R/B                
1 39679U 14021B   25300.28584054  .00018020  00000+0  44657-3 0  9997
2 39679  51.6082 266.0636 0105466 338.7786  20.8838 15.34868622635751
ALOS-2                  
1 39766U 14029A   25300.95549125  .00001586  00000+0  21941-3 0  9996
2 39766  97.9232  36.4529 0001053  92.2145 267.9187 14.79442162617246
YAOGAN-29               
1 41038U 15069A   25301.00137025  .00000700  00000+0  93272-4 0  9999
2 41038  98.0270 324.0146 0002785  74.8806 285.2715 14.82806298536214
ASTRO-H (HITOMI)        
1 41337U 16012A   25300.92099348  .00004507  00000+0  27270-3 0  9998
2 41337  30.9979 132.6561 0009897  76.7240 283.4502 15.08936843532157
HXMT (HUIYAN)           
1 42758U 17034A   25300.73298100  .00008445  00000+0  44444-3 0  9994
2 42758  43.0152  34.7905 0031898 115.8692 244.5450 15.15487060462353
CZ-2C R/B               
1 43521U 18054D   25300.92588883  .00078670  00000+0  76569-3 0  9997
2 43521  35.1342 129.2776 0026028  59.3615 300.9677 15.64601567407853
SAOCOM 1A               
1 43641U 18076A   25300.96726066  .00000739  00000+0  99291-4 0  9994
2 43641  97.8878 126.0507 0001422  86.1339 274.0037 14.82168770381703
H-2A R/B                
1 43682U 18084L   25300.57722871  .00020174  00000+0  58565-3 0  9998
2 43682  98.8821 125.1734 0029385 122.7136 237.6942 15.35127081385319
SAOCOM 1B               
1 46265U 20059A   25300.99854531  .00000729  00000+0  98111-4 0  9994
2 46265  97.8872 125.1847 0001372  88.2530 271.8840 14.82160061279099
CSS (TIANHE)            
1 48274U 21035A   25300.92737871  .00037011  00000+0  43233-3 0  9999
2 48274  41.4667 294.9902 0010824 295.4646  64.5073 15.60799969256875
